CZ-2C R/B               
1 54039U 22132E   26051.89711395  .00035692  00000+0  43300-3 0  9995
2 54039  97.2962  54.7259 0020126 145.7929 214.4630 15.60290776187759
GSLV R/B                
1 54149U 22138AN  26051.80553862  .00003638  00000+0  31550-3 0  9996
2 54149  87.3881 172.0117 0020543 207.4603 152.5545 14.96637332181400
XRISM                   
1 57800U 23137A   26051.33751800  .00004714  00000+0  26762-3 0  9998
2 57800  31.0031  35.8743 0008293 226.3031 133.6921 15.11269391135168
ACS3                    
1 59588U 24077B   26051.86013841  .00019033  00000+0  15585-1 0  9990
2 59588  97.2164 356.7569 0049310 125.2712 235.3079 13.88853427 91866
SZ-21 MODULE            
1 66515U 25246C   26051.04654385  .00031392  00000+0  28694-3 0  9990
2 66515  41.4757 311.8512 0001754 295.1642  64.9017 15.67142085 15305
